GLOBALSTAR M024 [-]     
1 25883U 99043A   24105.79743293 -.00000047  00000+0  64805-3 0  9994
2 25883  52.0013 267.2102 0002298 118.8938 348.5591 11.10161160 67284
GLOBALSTAR M027 [-]     
1 25884U 99043B   24105.91903721 -.00000084  00000+0 -77853-3 0  9992
2 25884  52.0239 332.7881 0021722  21.3326 338.8368 11.04367788 93920
GLOBALSTAR M054 [-]     
1 25885U 99043C   24105.51283647 -.00000138  00000+0 -16903-2 0  9995
2 25885  52.0119 172.9273 0005028 161.1234 303.5188 11.39202726 70190
GLOBALSTAR M053 [-]     
1 25886U 99043D   24105.32288927 -.00000080  00000+0 -32806-3 0  9998
2 25886  51.9960  96.6814 0003351  72.3901  37.6484 11.27654461 71062
GLOBALSTAR M058 [-]     
1 25907U 99049A   24105.48406838 -.00000120  00000+0 -48404-3 0  9994
2 25907  51.9925 173.9026 0002690 171.4491 188.6390 11.93176394490369
GLOBALSTAR M050 [-]     
1 25908U 99049B   24105.49295522 -.00000143  00000+0 -62415-3 0  9995
2 25908  51.9981 213.5814 0008729 254.2043 187.3595 12.07431856 96403
GLOBALSTAR M033 [-]     
1 25909U 99049C   24105.30543714 -.00000095  00000+0 -27158-4 0  9997
2 25909  51.9888 115.5531 0011751 108.5756 251.6368 12.20269591483388
GLOBALSTAR M055 [-]     
1 25910U 99049D   24105.39198446 -.00000078  00000+0  14284-3 0  9991
2 25910  51.9997 146.9249 0006784 321.2218  38.8146 12.29398975115549
